NORAD_CAT_ID,OBJECT_NAME,OBJECT_TYPE,EPOCH,MEAN_MOTION,ECCENTRICITY,INCLINATION,RA_OF_ASC_NODE,ARG_OF_PERICENTER,MEAN_ANOMALY,BSTAR,MEAN_MOTION_DOT,MEAN_MOTION_DDOT,TLE_LINE0,TLE_LINE1,TLE_LINE2,SEMIMAJOR_AXIS,PERIOD,APOGEE,PERIGEE,DECAYED
54051.0,STARLINK-5195,PAYLOAD,2024-02-13 12:10:49,15.08839134,0.0001383,53.2175,134.5105,99.9042,260.2106,-8.5698e-05,-1.652e-05,0.0,0 STARLINK-5195,1 54051U 22136A   24044.50752123 -.00001652  00000-0 -85698-4 0  9994,2 54051  53.2175 134.5105 0001383  99.9042 260.2106 15.08839134 73310,6917.883,95.438,540.705,538.791,0.0
54051.0,STARLINK-5195,PAYLOAD,2024-02-14 12:01:36,15.08847485,9.08e-05,53.2175,130.0495,92.095,268.0146,1.4011e-05,-6.5e-07,0.0,0 STARLINK-5195,1 54051U 22136A   24045.50111439 -.00000065  00000-0  14011-4 0  9991,2 54051  53.2175 130.0495 0000908  92.0950 268.0146 15.08847485 73461,6917.858,95.437,540.351,539.094,0.0
54051.0,STARLINK-5195,PAYLOAD,2024-02-15 11:52:24,15.08833959,9.75e-05,53.2169,125.5887,96.776,263.3343,7.67e-05,9.33e-06,0.0,0 STARLINK-5195,1 54051U 22136A   24046.49472326  .00000933  00000-0  76700-4 0  9991,2 54051  53.2169 125.5887 0000975  96.7760 263.3343 15.08833959 73617,6917.899,95.438,540.438,539.089,0.0
54051.0,STARLINK-5195,PAYLOAD,2024-02-15 15:03:10,15.08835934,9.82e-05,53.217,124.9928,101.4276,258.6826,8.0375e-05,9.92e-06,0.0,0 STARLINK-5195,1 54051U 22136A   24046.62720220  .00000992  00000-0  80375-4 0  9993,2 54051  53.2170 124.9928 0000982 101.4276 258.6826 15.08835934 73159,6917.893,95.438,540.437,539.078,0.0
54051.0,STARLINK-5195,PAYLOAD,2024-02-16 11:43:10,15.08849251,0.0001193,53.2167,121.1296,86.5752,273.5377,0.00014574,2.033e-05,0.0,0 STARLINK-5195,1 54051U 22136A   24047.48831424  .00002033  00000-0  14574-3 0  9992,2 54051  53.2167 121.1296 0001193  86.5752 273.5377 15.08849251 73760,6917.852,95.437,540.542,538.892,0.0
54051.0,STARLINK-5195,PAYLOAD,2024-02-17 11:33:58,15.0883869,0.0001268,53.217,116.6698,101.4364,258.677,0.00011818,1.593e-05,0.0,0 STARLINK-5195,1 54051U 22136A   24048.48192350  .00001593  00000-0  11818-3 0  9999,2 54051  53.2170 116.6698 0001268 101.4364 258.6770 15.08838690 73911,6917.884,95.438,540.627,538.872,0.0
54051.0,STARLINK-5195,PAYLOAD,2024-02-17 21:06:17,15.08834459,0.0001511,53.2176,114.8837,88.4082,271.7083,3.1109e-05,2.07e-06,0.0,0 STARLINK-5195,1 54051U 22136A   24048.87936903  .00000207  00000-0  31109-4 0  9999,2 54051  53.2176 114.8837 0001511  88.4082 271.7083 15.08834459 73499,6917.897,95.438,540.808,538.717,0.0
54051.0,STARLINK-5195,PAYLOAD,2024-02-18 11:24:46,15.0883566,0.0001528,53.2181,112.213,100.1628,259.9536,-6.0777e-06,-3.85e-06,0.0,0 STARLINK-5195,1 54051U 22136A   24049.47553245 -.00000385  00000-0 -60777-5 0  9993,2 54051  53.2181 112.2130 0001528 100.1628 259.9536 15.08835660 73585,6917.894,95.438,540.816,538.702,0.0
54051.0,STARLINK-5195,PAYLOAD,2024-02-18 20:57:04,15.08847697,0.0001653,53.2178,110.4282,100.5097,259.6082,-0.0001215,-2.222e-05,0.0,0 STARLINK-5195,1 54051U 22136A   24049.87296683 -.00002222  00000-0 -12150-3 0  9999,2 54051  53.2178 110.4282 0001653 100.5097 259.6082 15.08847697 73645,6917.857,95.437,540.865,538.578,0.0
54051.0,STARLINK-5195,PAYLOAD,2024-02-19 11:15:32,15.08840222,0.0001558,53.2179,107.7519,101.7033,258.4134,7.7683e-05,9.49e-06,0.0,0 STARLINK-5195,1 54051U 22136A   24050.46913073  .00000949  00000-0  77683-4 0  9990,2 54051  53.2179 107.7519 0001558 101.7033 258.4134 15.08840222 74211,6917.88,95.438,540.823,538.667,0.0
54051.0,STARLINK-5195,PAYLOAD,2024-02-19 20:47:51,15.08846279,0.0001502,53.2173,105.9636,84.1543,275.962,5.5293e-05,5.92e-06,0.0,0 STARLINK-5195,1 54051U 22136A   24050.86656661  .00000592  00000-0  55293-4 0  9998,2 54051  53.2173 105.9636 0001502  84.1543 275.9620 15.08846279 73798,6917.861,95.437,540.765,538.687,0.0
54051.0,STARLINK-5195,PAYLOAD,2024-02-20 11:06:20,15.08839142,0.0001512,53.2169,103.2901,85.6301,274.4863,8.9977e-05,1.144e-05,0.0,0 STARLINK-5195,1 54051U 22136A   24051.46273310  .00001144  00000-0  89977-4 0  9991,2 54051  53.2169 103.2901 0001512  85.6301 274.4863 15.08839142 73882,6917.883,95.438,540.794,538.702,0.0
54051.0,STARLINK-5195,PAYLOAD,2024-02-20 20:38:37,15.08851713,0.0001531,53.2169,101.5057,85.3568,274.7599,0.00017783,2.544e-05,0.0,0 STARLINK-5195,1 54051U 22136A   24051.86016162  .00002544  00000-0  17783-3 0  9995,2 54051  53.2169 101.5057 0001531  85.3568 274.7599 15.08851713 73942,6917.845,95.437,540.769,538.65,0.0
54051.0,STARLINK-5195,PAYLOAD,2024-02-21 03:00:10,15.0885427,0.000154,53.2174,100.3153,85.9347,274.1821,0.00018957,2.731e-05,0.0,0 STARLINK-5195,1 54051U 22136A   24052.12511842  .00002731  00000-0  18957-3 0  9992,2 54051  53.2174 100.3153 0001540  85.9347 274.1821 15.08854270 74464,6917.837,95.437,540.767,538.636,0.0
54051.0,STARLINK-5195,PAYLOAD,2024-02-21 09:21:42,15.08863175,0.0001587,53.2166,99.1259,86.4457,273.6717,0.00026503,3.935e-05,0.0,0 STARLINK-5195,1 54051U 22136A   24052.39007057  .00003935  00000-0  26503-3 0  9992,2 54051  53.2166  99.1259 0001587  86.4457 273.6717 15.08863175 74503,6917.81,95.436,540.772,538.577,0.0
54051.0,STARLINK-5195,PAYLOAD,2024-02-21 20:29:24,15.08849853,0.0001746,53.2177,97.0431,83.7735,276.3456,7.1894e-05,8.57e-06,0.0,0 STARLINK-5195,1 54051U 22136A   24052.85375804  .00000857  00000-0  71894-4 0  9995,2 54051  53.2177  97.0431 0001746  83.7735 276.3456 15.08849853 74091,6917.85,95.437,540.923,538.507,0.0
54051.0,STARLINK-5195,PAYLOAD,2024-02-22 02:50:57,15.08840214,0.0002356,53.2162,95.8552,83.3231,276.8029,5.0437e-05,5.14e-06,0.0,0 STARLINK-5195,1 54051U 22136A   24053.11872532  .00000514  00000-0  50437-4 0  9995,2 54051  53.2162  95.8552 0002356  83.3231 276.8029 15.08840214 74611,6917.88,95.438,541.375,538.115,0.0
54051.0,STARLINK-5195,PAYLOAD,2024-02-22 09:12:30,15.08828946,0.0001384,53.2157,94.6653,90.1048,270.0103,-9.7739e-05,-1.843e-05,0.0,0 STARLINK-5195,1 54051U 22136A   24053.38369010 -.00001843  00000-0 -97739-4 0  9990,2 54051  53.2157  94.6653 0001384  90.1048 270.0103 15.08828946 74657,6917.914,95.438,540.737,538.822,0.0
54051.0,STARLINK-5195,PAYLOAD,2024-02-23 02:41:45,15.08835058,0.0001462,53.2181,91.3921,104.3462,255.7692,5.9148e-05,6.53e-06,0.0,0 STARLINK-5195,1 54051U 22136A   24054.11232805  .00000653  00000-0  59148-4 0  9991,2 54051  53.2181  91.3921 0001462 104.3462 255.7692 15.08835058 74768,6917.895,95.438,540.772,538.749,0.0
54051.0,STARLINK-5195,PAYLOAD,2024-02-23 09:03:17,15.08838677,0.0001337,53.2155,90.205,93.2785,266.836,0.00072076,0.00011201,0.0,0 STARLINK-5195,1 54051U 22136A   24054.37729147  .00011201  00000-0  72076-3 0  9994,2 54051  53.2155  90.2050 0001337  93.2785 266.8360 15.08838677 74322,6917.884,95.438,540.674,538.825,0.0
54051.0,STARLINK-5195,PAYLOAD,2024-02-24 08:54:05,15.08846041,0.0001494,53.2158,85.7433,97.1808,262.9355,0.00042969,6.558e-05,0.0,0 STARLINK-5195,1 54051U 22136A   24055.37089232  .00006558  00000-0  42969-3 0  9996,2 54051  53.2158  85.7433 0001494  97.1808 262.9355 15.08846041 74956,6917.862,95.437,540.76,538.693,0.0
54051.0,STARLINK-5195,PAYLOAD,2024-02-24 18:26:23,15.08844541,0.0001468,53.2155,83.9596,96.2065,263.9094,0.00030139,4.512e-05,0.0,0 STARLINK-5195,1 54051U 22136A   24055.76833266  .00004512  00000-0  30139-3 0  9997,2 54051  53.2155  83.9596 0001468  96.2065 263.9094 15.08844541 74537,6917.867,95.437,540.747,538.716,0.0
54051.0,STARLINK-5195,PAYLOAD,2024-02-25 05:34:06,15.08832489,0.0001558,53.2166,81.8782,97.5591,262.5578,-5.8372e-05,-1.217e-05,0.0,0 STARLINK-5195,1 54051U 22136A   24056.23201689 -.00001217  00000-0 -58372-4 0  9999,2 54051  53.2166  81.8782 0001558  97.5591 262.5578 15.08832489 75082,6917.903,95.438,540.846,538.691,0.0
54051.0,STARLINK-5195,PAYLOAD,2024-02-25 07:09:29,15.08829648,0.0001521,53.2172,81.5806,97.4721,262.6444,-6.9585e-05,-1.395e-05,0.0,0 STARLINK-5195,1 54051U 22136A   24056.29826031 -.00001395  00000-0 -69585-4 0  9994,2 54051  53.2172  81.5806 0001521  97.4721 262.6444 15.08829648 74611,6917.912,95.438,540.829,538.725,0.0
54051.0,STARLINK-5195,PAYLOAD,2024-02-25 18:17:12,15.08819701,0.0001473,53.2163,79.4983,95.9607,264.1553,-0.00015992,-2.831e-05,0.0,0 STARLINK-5195,1 54051U 22136A   24056.76194955 -.00002831  00000-0 -15992-3 0  9997,2 54051  53.2163  79.4983 0001473  95.9607 264.1553 15.08819701 75163,6917.942,95.439,540.826,538.788,0.0
54051.0,STARLINK-5195,PAYLOAD,2024-02-26 08:35:40,15.08838401,0.0001352,53.2163,76.8235,102.2671,257.8472,9.4678e-05,1.219e-05,0.0,0 STARLINK-5195,1 54051U 22136A   24057.35810585  .00001219  00000-0  94678-4 0  9993,2 54051  53.2163  76.8235 0001352 102.2671 257.8472 15.08838401 75250,6917.885,95.438,540.686,538.815,0.0
54051.0,STARLINK-5195,PAYLOAD,2024-02-27 08:26:27,15.08856041,0.0001447,53.2156,72.3619,98.2005,261.9151,0.00050431,7.751e-05,0.0,0 STARLINK-5195,1 54051U 22136A   24058.35170215  .00007751  00000-0  50431-3 0  9998,2 54051  53.2156  72.3619 0001447  98.2005 261.9151 15.08856041 75406,6917.831,95.437,540.697,538.695,0.0
54051.0,STARLINK-5195,PAYLOAD,2024-02-27 17:58:45,15.08856272,0.000162,53.2158,70.578,82.7215,277.3961,0.00033016,4.973e-05,0.0,0 STARLINK-5195,1 54051U 22136A   24058.74914104  .00004973  00000-0  33016-3 0  9997,2 54051  53.2158  70.5780 0001620  82.7215 277.3961 15.08856272 74989,6917.831,95.437,540.816,538.575,0.0
54051.0,STARLINK-5195,PAYLOAD,2024-02-28 00:20:18,15.08852453,0.0001855,53.2166,69.3905,87.6842,272.4362,0.00013095,1.797e-05,0.0,0 STARLINK-5195,1 54051U 22136A   24059.01410107  .00001797  00000-0  13095-3 0  9998,2 54051  53.2166  69.3905 0001855  87.6842 272.4362 15.08852453 75500,6917.842,95.437,540.991,538.424,0.0
54051.0,STARLINK-5195,PAYLOAD,2024-02-28 09:52:36,15.0885322,0.0001483,53.2155,67.6039,89.5537,270.5625,0.00022108,3.234e-05,0.0,0 STARLINK-5195,1 54051U 22136A   24059.41153822  .00003234  00000-0  22108-3 0  9993,2 54051  53.2155  67.6039 0001483  89.5537 270.5625 15.08853220 75083,6917.84,95.437,540.731,538.679,0.0
